name,opening_hours,type,state_district,country,county,state,city_district,postcode,country_code,village,road
Deli lounge,,bar,Surabaya,Indonesia,Lakarsantri,Jawa Timur,RW 04,60185,id,Lakarsantri,Jalan Citraraya Utama
Oase club,,bar,Surabaya,Indonesia,Putat Gede,Jawa Timur,RW 01,60225,id,Putat Gede,Jalan HR. Muhammad
Markas,,bar,Surabaya,Indonesia,Panjang Jiwo,Jawa Timur,RW 02,60119,id,Panjang Jiwo,Jalan Panjang Jiwo
Dal Ga Dot,,bar,Surabaya,Indonesia,Lidah Kulon,Jawa Timur,RW 13,60185,id,Lidah Kulon,Jalan Niagara Gapura
Our Bar,Su-Th 17:00-01:00; Fr-Sa 17:00-02:00,bar,Surabaya,Indonesia,Embong Kaliasin,Jawa Timur,RW 04,60271,id,Embong Kaliasin,Jalan Embong Cerme
Option billiard,Mo-Su 10:00-01:00,bar,Surabaya,Indonesia,Jeruk,Jawa Timur,RW 04,60185,id,Jeruk,Jalan Telaga Utama
Desperados Grill and Bar,"Fr, Sa 18:00-01:30; Mo-Th, Su 18:00-02:30",bar,Surabaya,Indonesia,Pakis,Jawa Timur,RW 10,60256,id,Pakis,Jalan Bintang Diponegoro
STMJ Bu Nunuk Pojok Ngagel,,cafe,Surabaya,Indonesia,Ngagelrejo,Jawa Timur,RW 01,60245,id,Ngagelrejo,Jalan Ngagel Rejo Utara VI
Warkop Damai,,cafe,Surabaya,Indonesia,Wonorejo,Jawa Timur,RW 02,60296,id,Wonorejo,Jalan Wonorejo Asri XXI
Le cafe gourmand,Mo-Su 08:00-23:00,cafe,Surabaya,Indonesia,Babatan,Jawa Timur,Kawasan Superblock Pakuwon,60185,id,Babatan,Jalan Bukit Darmo Boulevard
Elizabeth James,Mo-Su 10:30-22:00,cafe,Surabaya,Indonesia,Pradahkali Kendal,Jawa Timur,RW 02,60185,id,Pradahkali Kendal,Jalan Kondominium Graha Famili
Starbucks,,cafe,Surabaya,Indonesia,Dukuh Pakis,Jawa Timur,RW 05,60225,id,Dukuh Pakis,Jalan Kencanasari Barat I
Calibre Coffee Roasters,,cafe,Surabaya,Indonesia,Ketabang,Jawa Timur,RW 06,60272,id,,Jalan Walikota Mustajab
Palms,,cafe,Surabaya,Indonesia,Lidah Wetan,Jawa Timur,RW 06,60185,id,Lidah Wetan,Jalan Imperial Golf Regency
Monopole Coffee Lab,,cafe,Surabaya,Indonesia,Sono Kwijenan,Jawa Timur,RW 03,60226,id,Sono Kwijenan,Jalan Raya Darmo Permai I
Kedai Tua Baru,Mo-Su 11:00-22:00,cafe,Surabaya,Indonesia,Kedungdoro,Jawa Timur,RW 01,60261,id,Kedungdoro,Jalan Tegalsari
Starbucks,,cafe,Surabaya,Indonesia,Ketabang,Jawa Timur,RW 04,60271,id,Ketabang,Jalan Gubeng Pojok Dalam
Starbucks,Mo-Su 07:30-23:00,cafe,Surabaya,Indonesia,Babatan,Jawa Timur,RW 11,60185,id,Babatan,Jalan Bukit Darmo Boulevard
Excelso,Mo-Su 10:00-22:00,cafe,Surabaya,Indonesia,Lidah Kulon,Jawa Timur,RW 06,60185,id,Lidah Kulon,Jalan Puri Widya Kencana
Kopi Ganes,,cafe,Surabaya,Indonesia,Keputih,Jawa Timur,RW 06,60111,id,Keputih,Jalan Keputih Tegal Timur II
Kedai kopi SINGGALANG,,cafe,Surabaya,Indonesia,Bubutan,Jawa Timur,RW 03,64412,id,Bubutan,Jalan Lamongan
Warkop tugu emas,,cafe,Surabaya,Indonesia,Pakis,Jawa Timur,RW 01,60256,id,Pakis,Jalan Wonokitri 2
jj-coffee,,cafe,,Indonesia,,Jawa Timur,,61256,id,Wedoro,Jalan Brigjend. Katamso
Starbucks,,cafe,Surabaya,Indonesia,Wonokromo,Jawa Timur,RW 04,60231,id,Wonokromo,Jalan Ahmad Yani
After you,Mo-Su 11:00-23:55,cafe,Surabaya,Indonesia,Jeruk,Jawa Timur,RW 04,60185,id,Jeruk,Jalan Telaga Utama
Starbucks,Mo-Su 07:00-22:00,cafe,Surabaya,Indonesia,Lidah Kulon,Jawa Timur,RW 06,60185,id,Lidah Kulon,Jalan Telaga Golf
Starbucks,,cafe,Surabaya,Indonesia,Mulyorejo,Jawa Timur,RW 07,60115,id,Mulyorejo,Jalan Dharmahusada Indah Timur
High Point Cafe Speciality,,cafe,Surabaya,Indonesia,SiwalanKerto,Jawa Timur,RW 01,60236,id,Siwalankerto,Jalan Siwalankerto
Warung pojok,,cafe,,Indonesia,,Jawa Timur,,61252,id,Buduran,1
Warung Bu Lilik,,cafe,,Indonesia,,Jawa Timur,,61254,id,Waru,Jalan Jenderal S Parman 4
Ndayak warkop cak gilun,Mo-Su 06:00-11:45,cafe,,Indonesia,,Jawa Timur,,61254,id,Ganting,Jalan Wonokoyo
Shae Cafe and Eatery,,cafe,Surabaya,Indonesia,Ngagel,Jawa Timur,RW 04,60246,id,,Jalan Bawean
Warkop Kong Hari,24,cafe,,Indonesia,,Jawa Timur,,61254,id,Waru,Jalan Letjen S Parman
Warkop Nobar,16:00-02:00,cafe,Surabaya,Indonesia,Sememi,Jawa Timur,RW 05,60198,id,Sememi,Jalan Bandarejo III
Sapi Milk,,cafe,Surabaya,Indonesia,Menur Pumpungan,Jawa Timur,RW 04,60118,id,Menur Pumpungan,Jalan Raya Manyar
Pazkul,,cafe,,Indonesia,,Jawa Timur,,60271,id,Jati,Sidoarjo
Kedai Kopi (Keiko),,cafe,Surabaya,Indonesia,Klampis Ngasem,Jawa Timur,RW 01,60117,id,Klampis Ngasem,Jalan Klampis Ngasem gang masjid
Surabaya pagi,,cafe,Surabaya,Indonesia,Krembangan Selatan,Jawa Timur,RW 10,60175,id,Krembangan Selatan,Gang Jalak
Historica Coffee & Pastry,,cafe,Surabaya,Indonesia,Gubeng,Jawa Timur,RW 04,60281,id,Gubeng,Jalan Sumatera
Pisa,Mo-Su 11:00-21:00,cafe,Surabaya,Indonesia,Pradahkali Kendal,Jawa Timur,RW 08,60185,id,Pradahkali Kendal,Jalan Simpang Darmo Permai Selatan IV
Autonet,,cafe,Surabaya,Indonesia,Keputran,Jawa Timur,RW 06,60265,id,Keputran,Jalan Mojopahit
Coffee Toffee,,cafe,Surabaya,Indonesia,Klampis Ngasem,Jawa Timur,RW 02,60117,id,Klampis Ngasem,Jalan Klampis Jaya
Coffeezone,,cafe,Surabaya,Indonesia,Keputran,Jawa Timur,RW 06,60265,id,Keputran,Jalan Tumapel
Kabinet,Mo-Su 08:00-22:00,cafe,Surabaya,Indonesia,Lidah Wetan,Jawa Timur,RW 06,60185,id,Lidah Wetan,Jalan Bukit Indah Lontar 1
Le Cafe Gourmand,Mo-Su 08:00-22:00,cafe,Surabaya,Indonesia,Tegalsari,Jawa Timur,RW 02,60262,id,Tegalsari,Jalan Pregolan
De mandailing Cafe n Eatery Jemur Sari,,cafe,Surabaya,Indonesia,Jemur Wonosari,Jawa Timur,RW 08,60237,id,Jemur Wonosari,Jalan Jemur Sari
Supresso,,cafe,Surabaya,Indonesia,Babatan,Jawa Timur,RW 09,60185,id,Babatan,Jalan Puncak Lontar I
Starbucks,Mo-Su 10:00-22:00,cafe,Surabaya,Indonesia,Lontar,Jawa Timur,RW 01,60185,id,Lontar,Jalan Raya Lontar PLN
Otoclassic Cafe,,cafe,Surabaya,Indonesia,Baratajaya,Jawa Timur,RW 04,60284,id,Baratajaya,Jalan Krukah Timur
Churrz,,cafe,Surabaya,Indonesia,Pradahkali Kendal,Jawa Timur,RW 11,60185,id,Pradahkali Kendal,Jalan Kondominium Graha Famili
One Dollar Cafe,,cafe,Surabaya,Indonesia,Ngagel,Jawa Timur,RW 10,60246,id,Ngagel,Jalan Bung Tomo
Bon Cafe,Mo-Su 09:00-22:30,cafe,Surabaya,Indonesia,Lidah Wetan,Jawa Timur,RW 06,60185,id,Lidah Wetan,Jalan Lingkar Dalam Barat
Four Seeds Coffee,,cafe,Surabaya,Indonesia,Manyar Sabrangan,Jawa Timur,RW 07,60285,id,Manyar Sabrangan,Jalan Manyar Kertoarjo
Layali Shisha Cafe and Lounge,,cafe,Surabaya,Indonesia,Gubeng,Jawa Timur,RW 04,60281,id,Gubeng,Jalan Sumatra
Communal,,cafe,Surabaya,Indonesia,Manyar Sabrangan,Jawa Timur,RW 09,60115,id,Manyar Sabrangan,Jalan Kertajaya Indah Tengah
"Philip's coffee",Tu-Su 09:00-21:00,cafe,Surabaya,Indonesia,Babatan,Jawa Timur,Kawasan Superblock Pakuwon,60185,id,Babatan,Jalan Bukit Darmo Boulevard
Cafe Glass,,cafe,Surabaya,Indonesia,Baratajaya,Jawa Timur,RW 03,60284,id,Baratajaya,Jalan Nginden
Quickly,,cafe,,Indonesia,,Jawa Timur,,61253,id,Semampir,Jalan By Pass Juanda
GR Café (Gue Rasa ini Café),,cafe,Surabaya,Indonesia,Ngagel,Jawa Timur,RW 10,60245,id,Ngagel,Jalan Bung Tomo
Skyline design,,cafe,Surabaya,Indonesia,Babatan,Jawa Timur,Kawasan Superblock Pakuwon,60185,id,Babatan,Jalan Bukit Darmo Boulevard
Caturra Espresso,,cafe,Surabaya,Indonesia,Sawahan,Jawa Timur,RW 07,60251,id,Sawahan,Jalan Ansjasmoro
Starbucks,,cafe,,Indonesia,,Jawa Timur,,60252,id,Semampir,Jalan By Pass Juanda
Spago,Mo-Su 10:30-22:30,cafe,Surabaya,Indonesia,Lidah Kulon,Jawa Timur,RW 13,60185,id,Lidah Kulon,Jalan Niagara Gapura
Bird house,Mo-Su 12:00-22:00,cafe,Surabaya,Indonesia,Babatan,Jawa Timur,Kawasan Superblock Pakuwon,60185,id,Babatan,Jalan Bukit Darmo Boulevard
Excelso,,cafe,Surabaya,Indonesia,Embong Kaliasin,Jawa Timur,RW 07,60271,id,Embong Kaliasin,Jalan Panglima Besar Sudirman
KPK Latar Ombo,,cafe,Surabaya,Indonesia,Karah,Jawa Timur,RW 06,60231,id,Karah,Jalan Raya Karah
Redback,Mo-Su 06:00-22:00,cafe,Surabaya,Indonesia,Pradahkali Kendal,Jawa Timur,RW 08,60185,id,Pradahkali Kendal,Jalan Raya Darmo Permai Selatan
The Coffee Bean & Tea Leaf,,cafe,Surabaya,Indonesia,Gunungsari,Jawa Timur,RW 05,60225,id,Gunungsari,Jalan Kencanasari Timur XX
MIXTIX,"We-Su 15:00-00:00, Mo 15:00-00:00",cafe,Surabaya,Indonesia,Jeruk,Jawa Timur,RW 04,60185,id,Jeruk,Jalan Telaga Utama
Blackbarn Coffee,,cafe,Surabaya,Indonesia,Dr. Sutomo,Jawa Timur,RW 14,60264,id,Dr. Sutomo,Jalan Untung Suropati
"Dunkin' Donut",,cafe,Surabaya,Indonesia,Pacar Keling,Jawa Timur,RW 07,60131,id,Pacar Keling,Jalan Gubeng Masjid
Warung danang,Mo-Sa 00:00-24:00,cafe,Surabaya,Indonesia,Mulyorejo,Jawa Timur,RW 09,60115,id,Mulyorejo,Jalan Dharmahusada Indah II
Too Too Moo Patisserie,,cafe,Surabaya,Indonesia,Dr. Sutomo,Jawa Timur,RW 14,60264,id,Dr. Sutomo,Jalan Untung Suropati
Feliz Guest House & Cafe,,cafe,Surabaya,Indonesia,Kendangsari,Jawa Timur,RW 01,60237,id,Kendangsari,Jalan Raya Kendangsari
Kafe Panorama,,cafe,Surabaya,Indonesia,Manyar Sabrangan,Jawa Timur,RW 08,60285,id,,Jalan Menur
Stilrod Cycle Shop,,cafe,Surabaya,Indonesia,Darmo,Jawa Timur,RW 03,60241,id,,Jalan Juwono
Kudos Cafe,Mo-Th 08:00-22:00; Fr-Su 08:00-23:00,cafe,Surabaya,Indonesia,Lidah Wetan,Jawa Timur,Kawasan Superblock Pakuwon,60241,id,Lidah Wetan,Jalan Lingkar Dalam Barat
Libby cafe,,cafe,Surabaya,Indonesia,Tanjungsari,Jawa Timur,RW 03,60184,id,Tanjungsari,Jalan Raya Sukomanunggal Jaya
Cafe Glass,,cafe,Surabaya,Indonesia,Mojo,Jawa Timur,RW 06,60281,id,Mojo,Jalan Profesor Doktor Moestopo
Tea Presso,,cafe,Surabaya,Indonesia,Babatan,Jawa Timur,RW 11,60227,id,Babatan,Jalan Boulevard Famili Selatan
Starbucks,,cafe,Surabaya,Indonesia,Krembangan Selatan,Jawa Timur,RW 09,60174,id,,Jalan Bubutan
,,cafe,,Indonesia,,Jawa Timur,,60271,id,Sidokumpul,Jalan Trunojoyo
Break Cafe,,cafe,,Indonesia,,Jawa Timur,,61253,id,Betro,Jalan Ir. H. Juanda
Calipto,Tu-Su 09:00-21:00,cafe,Surabaya,Indonesia,Sambikerep,Jawa Timur,RW 08,60185,id,Sambikerep,Jalan Telaga Puspa Raya
Noach Cafe & Bistro,Mo-Th 11:00-22:00; Fr-Sa 11:00-22:00,cafe,Surabaya,Indonesia,Tegalsari,Jawa Timur,RW 02,60271,id,Tegalsari,Jalan Pregolan
Coyote,,cafe,Surabaya,Indonesia,Embong Kaliasin,Jawa Timur,RW 02,60271,id,Embong Kaliasin,Jalan Jenderal Basuki Rachmat
Excelso,,cafe,Surabaya,Indonesia,Mulyorejo,Jawa Timur,RW 09,60115,id,Mulyorejo,Jalan Dharmahusada Indah Timur XVI
Starbucks,Mo-Su 10:00-22:00,cafe,Surabaya,Indonesia,Babatan,Jawa Timur,Kawasan Superblock Pakuwon,60185,id,Babatan,Jalan Puncak Indah Lontar Barat
The Café,11:00-22:00,cafe,Surabaya,Indonesia,Krembangan Utara,Jawa Timur,RW 10,60261,id,,Jalan Kebalen Timur
Ohana,,cafe,Surabaya,Indonesia,Babatan,Jawa Timur,Kawasan Superblock Pakuwon,60185,id,Babatan,Jalan Bukit Darmo Boulevard
GatherInc.,"Mo-Fr 10:00-22:00; Sa, Su 10:00-23:00",cafe,Surabaya,Indonesia,Made,Jawa Timur,RW 07,60185,id,Made,Taman puspa raya
Teras Rumah Cafe,,cafe,Surabaya,Indonesia,Mulyorejo,Jawa Timur,RW 05,60115,id,,Jalan Wisma Permai I
Konig,,cafe,Surabaya,Indonesia,Manyar Sabrangan,Jawa Timur,RW 10,60115,id,Manyar Sabrangan,Jalan Kertajaya Indah Tengah V
Warung Kopi PDI,,cafe,,Indonesia,,Jawa Timur,,61116,id,Bedilan,Jalan Jaksa Agung Suprapto
warung pojok,,cafe,,Indonesia,,Jawa Timur,,61116,id,,Jalan Maulana Malik Ibrahim
Warung Ultra,,cafe,,Indonesia,,Jawa Timur,,61116,id,Bedilan,Jalan Jaksa Agung Suprapto
Starbucks,,cafe,Surabaya,Indonesia,Kedungdoro,Jawa Timur,RW 10,60275,id,Kedungdoro,Jalan Mergoyoso
Depot 20,Mo-Su 09:00-21:00,cafe,Surabaya,Indonesia,Embong Kaliasin,Jawa Timur,RW 08,60271,id,Embong Kaliasin,Jalan Embong Blimbing
Coffee Estatindo,Mo-Su 10:00-23:00,cafe,Surabaya,Indonesia,Kedung Baruk,Jawa Timur,RW 05,60223,id,Kedung Baruk,Jalan Dr. Ir. H. Soekarno
The Avenue Lounge Bar,,cafe,Surabaya,Indonesia,Dukuh Pakis,Jawa Timur,RW 02,60256,id,Dukuh Pakis,Jalan Mayjend Sungkono
Starbucks,Mo-Su 08:00-22:00,cafe,Surabaya,Indonesia,Babatan,Jawa Timur,Kawasan Superblock Pakuwon,60185,id,Babatan,Jalan Bukit Darmo Boulevard
"Dunkin' Donuts Bunguran",,cafe,Surabaya,Indonesia,Pakis,Jawa Timur,RW 09,61256,id,Pakis,Jalan Dukuh Kupang Timur XIX
warung spensa,,cafe,,Indonesia,,Jawa Timur,,61116,id,Bedilan,Jalan Jaksa Agung Suprapto
Warung APJ,,cafe,,Indonesia,,Jawa Timur,,61116,id,Bedilan,Jalan Jaksa Agung Suprapto
Sugabites,,cafe,Surabaya,Indonesia,Pradahkali Kendal,Jawa Timur,RW 11,60185,id,Pradahkali Kendal,Jalan Kondominium Graha Famili
TGC,Mo-Su 06:00-23:45,cafe,Surabaya,Indonesia,Pradahkali Kendal,Jawa Timur,RW 11,60185,id,Pradahkali Kendal,Jalan Kondominium Graha Famili
"Zangrandi, Ice Cream",,cafe,Surabaya,Indonesia,Embong Kaliasin,Jawa Timur,RW 02,60271,id,Embong Kaliasin,Jalan Yos Sudarso
KFC,Mo-Su 10:00-22:00,fast_food,Surabaya,Indonesia,Pradahkali Kendal,Jawa Timur,Kawasan Superblock Pakuwon,60185,id,Pradahkali Kendal,Jalan Puncak Indah Lontar Barat
Bumbu jawa,,fast_food,Surabaya,Indonesia,Pradahkali Kendal,Jawa Timur,RW 02,60185,id,Pradahkali Kendal,Jalan Graha Famili Barat 1
KFC,,fast_food,Surabaya,Indonesia,Darmo,Jawa Timur,RW 10,60225,id,,Jalan Mangkunegoro
"McDonald's",24/7,fast_food,Surabaya,Indonesia,Pradahkali Kendal,Jawa Timur,RW 02,60256,id,Pradahkali Kendal,Jalan Raya Graha Famili Utara
Mr. Big Tummy,Mo-Su 10:00-22:00,fast_food,Surabaya,Indonesia,Pradahkali Kendal,Jawa Timur,RW 02,60185,id,Pradahkali Kendal,Jalan Kondominium Graha Famili
Kmie,,fast_food,Surabaya,Indonesia,Pradahkali Kendal,Jawa Timur,RW 02,60185,id,Pradahkali Kendal,Jalan Kondominium Graha Famili
Burger King,,fast_food,Surabaya,Indonesia,Embong Kaliasin,Jawa Timur,RW 01,60271,id,Embong Kaliasin,Jalan Pemuda
"Carl's Jr Kertajaya",,fast_food,Surabaya,Indonesia,Manyar Sabrangan,Jawa Timur,RW 10,60115,id,Manyar Sabrangan,Jalan Raya Kertajaya Indah
McDonalds,,fast_food,Surabaya,Indonesia,Embong Kaliasin,Jawa Timur,RW 01,60271,id,Embong Kaliasin,Jalan Pemuda
Mr. Jack,24/7,fast_food,Surabaya,Indonesia,Menur Pumpungan,Jawa Timur,RW 05,60118,id,Menur Pumpungan,Jalan Manyar Rejo III
"Sissy's kitchen",Mo-Su 14:00-23:00,fast_food,Surabaya,Indonesia,Pradahkali Kendal,Jawa Timur,RW 02,60185,id,Pradahkali Kendal,Jalan Kondominium Graha Famili
Burger King,,fast_food,,Indonesia,,Jawa Timur,,61253,id,Betro,Jalan Ir. H. Juanda
"McDonald's",,fast_food,Surabaya,Indonesia,Alon-Alon Contong,Jawa Timur,RW 01,60174,id,,Jalan Pahlawan
Mie Ayam Lumayan,,fast_food,Surabaya,Indonesia,Rungkut Kidul,Jawa Timur,RW 10,60293,id,Rungkut Kidul,Jalan Rungkut Asri
Wing stop,,fast_food,Surabaya,Indonesia,Lidah Wetan,Jawa Timur,RW 06,60185,id,Lidah Wetan,Jalan Lingkar Dalam Barat
"McDonald's",,fast_food,Surabaya,Indonesia,Babatan,Jawa Timur,RW 01,60223,id,Babatan,Jalan Babatan
"Carl's jr",Mo-Su 08:00-00:00,fast_food,Surabaya,Indonesia,Lidah Wetan,Jawa Timur,RW 06,60185,id,Lidah Wetan,Jalan Lingkar Dalam Barat
"McDonald's Mulyosari",,fast_food,Surabaya,Indonesia,Kalisari,Jawa Timur,RW 04,60112,id,,Jalan Central Park Regency Cluster
"Carl's Jr",,fast_food,Surabaya,Indonesia,Dr. Sutomo,Jawa Timur,RW 08,60265,id,Dr. Sutomo,Jalan Cokroaminoto
Sourrp me,,fast_food,Surabaya,Indonesia,Lidah Kulon,Jawa Timur,RW 13,60185,id,Lidah Kulon,Jalan Niagara Gapura
Sasty,Mo-Su 17:00-23:00,fast_food,Surabaya,Indonesia,Pradahkali Kendal,Jawa Timur,RW 02,60185,id,Pradahkali Kendal,Jalan Kondominium Graha Famili
KFC,,fast_food,,Indonesia,,Jawa Timur,,61253,id,Betro,Jalan Ir. H. Juanda
"McDonald's Mayjen Sungkono",,fast_food,Surabaya,Indonesia,Dukuh Pakis,Jawa Timur,RW 02,60188,id,Dukuh Pakis,Jalan Mayjend Sungkono
KFC,,fast_food,,Indonesia,,Jawa Timur,,61253,id,Betro,Jalan Ir. H. Juanda
KFC Adityawarman,,fast_food,Surabaya,Indonesia,Sawunggaling,Jawa Timur,RW 11,60243,id,Sawunggaling,Jalan Adityawarman
A&W Tamansari Papilio,,fast_food,Surabaya,Indonesia,Gayungan,Jawa Timur,RW 02,60235,id,,Jalan A Yani Frontage Barat
"Beard papa's",,fast_food,,Indonesia,,Jawa Timur,,60252,id,Semampir,Jalan By Pass Juanda
KFC,,fast_food,,Indonesia,,Jawa Timur,,60271,id,Entalsewu,Jalan Tol Surabaya–Porong
Pigmalion,Mo-Su 16:00-23:00,fast_food,Surabaya,Indonesia,Pradahkali Kendal,Jawa Timur,RW 02,60185,id,Pradahkali Kendal,Jalan Kondominium Graha Famili
Pizza hut,Mo-Su 10:00-23:00,fast_food,Surabaya,Indonesia,Lontar,Jawa Timur,RW 13,60185,id,,Jalan Niagara Gapura
Djogja,,fast_food,Surabaya,Indonesia,Lidah Kulon,Jawa Timur,RW 13,60185,id,Lidah Kulon,Jalan Niagara Gapura
A&W Puri Mas,,fast_food,Surabaya,Indonesia,Gunung Anyar,Jawa Timur,RW 06,60294,id,Gunung Anyar,Jalan Perum IKIP Gunung Anyar Indah
Richeese factory,,fast_food,Surabaya,Indonesia,Babatan,Jawa Timur,Kawasan Superblock Pakuwon,60185,id,Babatan,Jalan Bukit Darmo Boulevard
M,,fast_food,Surabaya,Indonesia,Babatan,Jawa Timur,Kawasan Superblock Pakuwon,60185,id,Babatan,Jalan Bukit Darmo Boulevard
KFC,,fast_food,Surabaya,Indonesia,Alon-Alon Contong,Jawa Timur,RW 01,60174,id,,Jalan Pahlawan
KFC,,fast_food,Surabaya,Indonesia,Kalisari,Jawa Timur,RW 04,60112,id,,Jalan Central Park Regency Cluster
Mc donald,,fast_food,,Indonesia,,Jawa Timur,,60271,id,Jati,Jalan Pahlawan
Bakso 88,,fast_food,,Indonesia,,Jawa Timur,,61254,id,Waru,Jalan Letjen S Parman
Pizza hut,Mo-Su 10:00-22:00,fast_food,Surabaya,Indonesia,Pradahkali Kendal,Jawa Timur,Kawasan Superblock Pakuwon,60185,id,Pradahkali Kendal,Jalan Puncak Indah Lontar Barat
"McDonald's",,fast_food,,Indonesia,,Jawa Timur,,60252,id,Pabean,Jalan Letjend. Suprapto
Burger king,Mo-Su 10:00-22:00,fast_food,Surabaya,Indonesia,Pradahkali Kendal,Jawa Timur,Kawasan Superblock Pakuwon,60185,id,Pradahkali Kendal,Jalan Puncak Indah Lontar Barat
Carls Jr,,fast_food,,Indonesia,,Jawa Timur,,61253,id,Betro,Jalan Ir. H. Juanda
Depot family,,fast_food,Surabaya,Indonesia,Babatan,Jawa Timur,Kawasan Superblock Pakuwon,60185,id,Babatan,Jalan Bukit Darmo Boulevard
"McDonald's Rungkut Madya",,fast_food,Surabaya,Indonesia,Rungkut Kidul,Jawa Timur,RW 07,60293,id,Rungkut Kidul,Jalan Rungkut Madya
PT. Sisnet Mitra Sejahtera,,guest_house,Surabaya,Indonesia,Kali Rungkut,Jawa Timur,RW 11,60293,id,,Jalan Rungkut Asri IV
,Su 10:00-22:00,guest_house,,Indonesia,,Jawa Timur,,61224,id,Cemeng Kalang,JI-154
House of Darmawan,,guest_house,Surabaya,Indonesia,Dukuh Sutorejo,Jawa Timur,RW 09,60113,id,,Jalan Sutorejo Baru
TAS 3,,guest_house,,Indonesia,,Jawa Timur,,61262,id,Semambung,JI-154
kertajaya 3d,,guest_house,Surabaya,Indonesia,Gubeng,Jawa Timur,RW 01,60281,id,Gubeng,Jalan Gubeng Kertajaya III D
wisma Shanty,,guest_house,Surabaya,Indonesia,Wonorejo,Jawa Timur,RW 03,60223,id,,Jalan Wonorejo Asri Perumahan Pondok Tanjung Permai 2
rumah semolo,,guest_house,Surabaya,Indonesia,Semolowaru,Jawa Timur,RW 01,60119,id,Semolowaru,Jalan Semolowaru Utara VIII
rumah pucang,,guest_house,Surabaya,Indonesia,Kertajaya,Jawa Timur,RW 05,60281,id,Kertajaya,Jalan Pucang Windu
Kost KITA,,guest_house,Surabaya,Indonesia,Pradahkali Kendal,Jawa Timur,RW 01,60225,id,Pradahkali Kendal,Jalan Pradah Kali Kendal VI
Jojoran Stal,,guest_house,Surabaya,Indonesia,Airlangga,Jawa Timur,RW 08,60281,id,Airlangga,Jalan Karang Menjangan
Asrama Haji Sukolilo Surabaya,,guest_house,Surabaya,Indonesia,Klampis Ngasem,Jawa Timur,RW 09,60117,id,,Jalan Raya Manyar Kertoadi
Losmen Puri,,guest_house,Surabaya,Indonesia,Peneleh,Jawa Timur,RW 05,60174,id,Peneleh,Jalan Makam Peneleh
Da Rafi Hostel,,hostel,,Indonesia,,Jawa Timur,,61256,id,Wadungasri,Jalan Wadung Asri
Darma Husada Penginapan,,hostel,Surabaya,Indonesia,Pacar Kembang,Jawa Timur,RW 01,60285,id,Pacar Kembang,Jalan Dharmahusada I
Pondok Asri Family Guest House,,hostel,Surabaya,Indonesia,Pucang Sewu,Jawa Timur,RW 04,60283,id,Pucang Sewu,Jalan Kalibokor Selatan
Kos Blambangan 12,,hostel,Surabaya,Indonesia,Keputran,Jawa Timur,RW 06,60265,id,Keputran,Jalan Blambangan
Eve Palace,,hostel,Surabaya,Indonesia,SiwalanKerto,Jawa Timur,RW 01,60236,id,Siwalankerto,Jalan Siwalankerto VIII
Blok AM 7,,hostel,Surabaya,Indonesia,Kali Rungkut,Jawa Timur,RW 01,60293,id,Kali Rungkut,Jalan Kali Rungkut
Pondok L.-Fash,,hostel,Surabaya,Indonesia,Kertajaya,Jawa Timur,RW 10,60281,id,,Jalan Gubeng Kertajaya IV D
C1,,hostel,Surabaya,Indonesia,SiwalanKerto,Jawa Timur,RW 01,60236,id,Siwalankerto,Jalan Siwalankerto VIII
Homestay Sepuluh Enam 106,,hostel,Surabaya,Indonesia,Tenggilis Mejoyo,Jawa Timur,RW 01,60292,id,,Jalan Tenggilis Mejoyo
Graha Ara Homestay,,hostel,Surabaya,Indonesia,Mojo,Jawa Timur,RW 03,60281,id,Mojo,Jalan Kedung Pengkol III
The Dharma,,hostel,Surabaya,Indonesia,Pacar Kembang,Jawa Timur,RW 01,60285,id,Pacar Kembang,Jalan Kedung Tarukan VII
Jojoran Stal,,hostel,Surabaya,Indonesia,Airlangga,Jawa Timur,RW 08,60281,id,Airlangga,Jalan Karang Menjangan
Rmh Ibu q,,hostel,Surabaya,Indonesia,Gubeng,Jawa Timur,RW 01,60281,id,Gubeng,Jalan Gubeng Kertajaya I A
Rock Hotel,,hotel,Surabaya,Indonesia,Baratajaya,Jawa Timur,RW 03,60284,id,,Jalan Barata Jaya 17
Country Heritage Resort Hotel,,hotel,Surabaya,Indonesia,Ngiden Jangkungan,Jawa Timur,RW 04,60118,id,Ngiden Jangkungan,Jalan Nginden Permata
Pop! Hotel,,hotel,Surabaya,Indonesia,Gubeng,Jawa Timur,RW 04,60281,id,Gubeng,Jalan Bangka
Hotel Walan Syariah,,hotel,,Indonesia,,Jawa Timur,,61253,id,Sedati Agung,Jalan Garuda
Hotel Sulawesi Gorontalo,,hotel,Surabaya,Indonesia,Embong Kaliasin,Jawa Timur,RW 04,60271,id,Embong Kaliasin,Jalan Embong Cerme
Farila Guest House,,hotel,Surabaya,Indonesia,Putat Jaya,Jawa Timur,RW 13,61256,id,Putat Jaya,Jalan Dukuh Kupang
Hotel Tanjung Emas,,hotel,Surabaya,Indonesia,Ngagel,Jawa Timur,RW 04,60246,id,,Jalan Flores
Santika Hotel Surabaya,,hotel,Surabaya,Indonesia,Dr. Sutomo,Jawa Timur,RW 08,60264,id,,Jalan Pandegiling
New Grand Park Hotel,,hotel,Surabaya,Indonesia,Bongkaran,Jawa Timur,RW 04,60161,id,Bongkaran,Jalan Samudra
Sheraton Surabaya Hotel & Towers,,hotel,Surabaya,Indonesia,Kedungdoro,Jawa Timur,RW 10,60261,id,Kedungdoro,Jalan Embong Malang
Somerset Hotel & Serviced Residence,,hotel,Surabaya,Indonesia,Dukuh Kupang,Jawa Timur,RW 04,60188,id,Dukuh Kupang,Jalan Raya Kupang Indah
Hotel Pasah Asih,,hotel,Surabaya,Indonesia,Pucang Sewu,Jawa Timur,RW 08,60283,id,Pucang Sewu,Jalan Pucang Kerep
Ts Suites,,hotel,Surabaya,Indonesia,Sawunggaling,Jawa Timur,RW 10,60242,id,Sawunggaling,Jalan Hayam Wuruk
Hotel Sahid Gunawangsa Surabaya,,hotel,Surabaya,Indonesia,Klampis Ngasem,Jawa Timur,RW 02,60118,id,Klampis Ngasem,Jalan Menur Pumpungan
Hotel Gubeng,,hotel,Surabaya,Indonesia,Pacar Keling,Jawa Timur,RW 07,60281,id,,Jalan Gubeng
Oranje Gasthuis,,hotel,Surabaya,Indonesia,SiwalanKerto,Jawa Timur,RW 01,60236,id,Siwalankerto,Jalan Siwalankerto
Hotel Bali,,hotel,Surabaya,Indonesia,Peneleh,Jawa Timur,RW 05,60174,id,Peneleh,Jalan Makam Peneleh
Keluarga,,hotel,,Indonesia,,Jawa Timur,,61253,id,Sedati Agung,Jalan Ir. H. Juanda
Hotel Arcadia Rajawali,,hotel,Surabaya,Indonesia,Krembangan Selatan,Jawa Timur,RW 10,60175,id,Krembangan Selatan,Jalan Rajawali
LUMINOR Hotel,,hotel,Surabaya,Indonesia,Panjang Jiwo,Jawa Timur,RW 07,60292,id,Panjang Jiwo,Jalan Jemursari
Kana Citra Guesthouse,,hotel,Surabaya,Indonesia,Lidah Kulon,Jawa Timur,RW 09,60271,id,Lidah Kulon,Jalan Telaga Utama
Hotel Ibis Budget HR Muhammad,,hotel,Surabaya,Indonesia,Putat Gede,Jawa Timur,RW 01,60189,id,Putat Gede,Jalan HR. Muhammad
Hotel MaxOne Tidar,,hotel,Surabaya,Indonesia,Sawahan,Jawa Timur,RW 07,60251,id,Sawahan,Jalan Tidar
MaxOneHotels.com Tidar Surabaya,,hotel,Surabaya,Indonesia,Sawahan,Jawa Timur,RW 07,60251,id,Sawahan,Jalan Tidar
Sun City Hotel,,hotel,,Indonesia,,Jawa Timur,,60271,id,Sidokumpul,Jalan Pahlawan
Sinar,,hotel,,Indonesia,,Jawa Timur,,61253,id,Sedati Agung,Jalan Ir. H. Juanda
Hotel Sulawesi Kertajaya,,hotel,Surabaya,Indonesia,Kertajaya,Jawa Timur,RW 10,60282,id,,Jalan Gubeng Kertajaya IV D
Hotel Kenongo,,hotel,Surabaya,Indonesia,Embong Kaliasin,Jawa Timur,RW 01,60271,id,Embong Kaliasin,Jalan Embong Kenongo
Hotel Satelit,,hotel,Surabaya,Indonesia,Dukuh Pakis,Jawa Timur,RW 02,60256,id,Dukuh Pakis,Jalan Mayjend Sungkono
Hotel Istana Permata,,hotel,Surabaya,Indonesia,Baratajaya,Jawa Timur,RW 02,60284,id,Baratajaya,Jalan Ngagel Jaya Indah
Grand Sumatra Hotel,,hotel,Surabaya,Indonesia,Gubeng,Jawa Timur,RW 04,60281,id,Gubeng,Jalan Sumatera
"D'Inn Hotel",,hotel,Surabaya,Indonesia,Rungkut Menanggal,Jawa Timur,RW 01,60293,id,Rungkut Menanggal,Jalan Puri Niaga
Hotel Pondok Hijau,,hotel,Surabaya,Indonesia,Putat Gede,Jawa Timur,RW 02,60189,id,Putat Gede,Jalan Raya Bukit Darmo
Ibis Budget Bandara Juanda,,hotel,,Indonesia,,Jawa Timur,,61253,id,Banjar Kemuning,Jl. Tambak Cemandi
De Puri Boutique Hotel,,hotel,Surabaya,Indonesia,Gubeng,Jawa Timur,RW 04,60281,id,Gubeng,Jalan Kalimantan
Hotel Majapahit,,hotel,Surabaya,Indonesia,Genteng,Jawa Timur,RW 05,60275,id,Genteng,Jalan Tunjungan
Hotel SWK 95 Surabaya,,hotel,Surabaya,Indonesia,SiwalanKerto,Jawa Timur,RW 01,60236,id,Siwalankerto,Jalan Siwalankerto
Java Paragon Hotel,,hotel,Surabaya,Indonesia,Dukuh Pakis,Jawa Timur,RW 02,60256,id,Dukuh Pakis,Jalan Pakis Argosari VII
Holiday Inn Express Surabaya Center Plaza,,hotel,Surabaya,Indonesia,Kedungdoro,Jawa Timur,RW 04,60251,id,Kedungdoro,Jalan Kedung Doro
favehotel Graha Agung Surabaya,,hotel,Surabaya,Indonesia,Lidah Wetan,Jawa Timur,RW 06,60256,id,Lidah Wetan,Jalan Bukit Indah Lontar 1
Hotel Arjuna Indah,,hotel,Surabaya,Indonesia,Sawahan,Jawa Timur,RW 06,60251,id,Sawahan,Jalan Raya Arjuna
Firdaus,,hotel,,Indonesia,,Jawa Timur,,61116,id,Yosowilangun,Jl. Kalimantan
Hotel Bekizaar,,hotel,Surabaya,Indonesia,Embong Kaliasin,Jawa Timur,RW 11,60262,id,Embong Kaliasin,Jalan Jenderal Basuki Rachmat
Sahid Gunawangsa Apartement & Hotel,,hotel,Surabaya,Indonesia,Klampis Ngasem,Jawa Timur,RW 02,60118,id,Klampis Ngasem,Jalan Menur Pumpungan
G Suites Hotel,,hotel,Surabaya,Indonesia,Gubeng,Jawa Timur,RW 04,60284,id,Gubeng,Jalan Gubeng
Quds Royal Hotel Surabaya,,hotel,Surabaya,Indonesia,Ampel,Jawa Timur,RW 01,60155,id,Ampel,Jalan Sultan Iskandar Muda
Best Hotel,,hotel,Surabaya,Indonesia,Tegalsari,Jawa Timur,RW 01,60261,id,Tegalsari,Jalan Kedungsari
Hotel Paprica,,hotel,Surabaya,Indonesia,Genteng,Jawa Timur,RW 10,60283,id,Genteng,Jalan Genteng Besar
Remaja,,hotel,Surabaya,Indonesia,Embong Kaliasin,Jawa Timur,RW 01,60271,id,Embong Kaliasin,Jalan Embong Kenongo
Emerald Hotel,,hotel,Surabaya,Indonesia,Ketabang,Jawa Timur,RW 09,60272,id,Ketabang,Jalan Ambengan
CitiHub Hotel @Arjuna,,hotel,Surabaya,Indonesia,Sawahan,Jawa Timur,RW 06,60251,id,Sawahan,Jalan Raya Arjuna
Core Hotel,,hotel,Surabaya,Indonesia,Mojo,Jawa Timur,RW 07,60116,id,Mojo,Jalan Manyar Kertoarjo IV
Luxpoint Hotel Surabaya,,hotel,Surabaya,Indonesia,Baratajaya,Jawa Timur,RW 07,60284,id,Baratajaya,Jalan Barata Jaya
Citihub Hotel,,hotel,Surabaya,Indonesia,Embong Kaliasin,Jawa Timur,RW 02,60271,id,Embong Kaliasin,Jalan Gubernur Suryo
Citihub Hotel @Mayjend Sungkono,,hotel,Surabaya,Indonesia,Dukuh Pakis,Jawa Timur,RW 04,60256,id,Dukuh Pakis,Jalan Mayjend Sungkono
Hotel Santika Jemursari,,hotel,Surabaya,Indonesia,Panjang Jiwo,Jawa Timur,RW 07,60237,id,Panjang Jiwo,Jalan Jemursari
Prime Royal Hotel,,hotel,Surabaya,Indonesia,Bubutan,Jawa Timur,RW 08,60251,id,,Jalan Kranggan
Loxy Inn Surabaya,,hotel,Surabaya,Indonesia,Embong Kaliasin,Jawa Timur,RW 03,60271,id,Embong Kaliasin,Jalan Embong Wungu
Nugraha Homestay,,hotel,Surabaya,Indonesia,Mojo,Jawa Timur,RW 06,60285,id,Mojo,Jalan Kedung Pengkol VI
Mira Inn,,hotel,Surabaya,Indonesia,Embong Kaliasin,Jawa Timur,RW 07,60281,id,Embong Kaliasin,Jalan Embong Tanjung
Bed and Breakfast Hotel Surabaya,,hotel,Surabaya,Indonesia,SiwalanKerto,Jawa Timur,RW 04,60237,id,Siwalankerto,Jalan Jemur Andayani XVII
The WIN Hotel,,hotel,Surabaya,Indonesia,Embong Kaliasin,Jawa Timur,RW 07,60271,id,Embong Kaliasin,Jalan Embong Tanjung
"D'Season Hotel",,hotel,Surabaya,Indonesia,Tenggilis Mejoyo,Jawa Timur,RW 01,60292,id,,Jalan Tenggilis Utara
Hotel Neo Gubeng,,hotel,Surabaya,Indonesia,Gubeng,Jawa Timur,RW 04,60281,id,Gubeng,Jalan Jawa
Hotel Utami,,hotel,,Indonesia,,Jawa Timur,,61254,id,Sedati Agung,Jalan Ir. H. Juanda
Citihub Hotel @Sudirman,,hotel,Surabaya,Indonesia,Embong Kaliasin,Jawa Timur,RW 07,60271,id,Embong Kaliasin,Jalan Panglima Besar Sudirman
Favehotel Mex Surabaya,,hotel,Surabaya,Indonesia,Tegalsari,Jawa Timur,RW 02,60261,id,Tegalsari,Jalan Pregolan
Hotel Grand Kalimas,,hotel,Surabaya,Indonesia,Nyamplungan,Jawa Timur,RW 06,60162,id,Nyamplungan,Jalan KH Mas Mansyur
Red Planet Hotels Surabaya,,hotel,Surabaya,Indonesia,Sawahan,Jawa Timur,RW 06,60251,id,Sawahan,Jalan Raya Arjuna
Hotel Antariksa,,hotel,Surabaya,Indonesia,Morokrembangan,Jawa Timur,RW 03,60178,id,Morokrembangan,Jalan Raya Demak
Hotel Sempoerno,,hotel,Surabaya,Indonesia,Mojo,Jawa Timur,RW 02,60285,id,,Jalan Kaliwaron
Singaraja Indah Hotel,,hotel,Surabaya,Indonesia,Peneleh,Jawa Timur,RW 13,60174,id,Peneleh,Jalan Pandean I
Hotel Paviljoen,,hotel,Surabaya,Indonesia,Genteng,Jawa Timur,RW 10,60275,id,Genteng,Jalan Genteng Besar
Hotel Green Sa Juanda,,hotel,,Indonesia,,Jawa Timur,,61253,id,Sedati Agung,Jalan Ir. H. Juanda
Sparking Bacpacker Hotel,,hotel,Surabaya,Indonesia,Embong Kaliasin,Jawa Timur,RW 05,60271,id,Embong Kaliasin,Jalan Kayon
Maumu Hotel and Lounge,,hotel,Surabaya,Indonesia,Ketabang,Jawa Timur,RW 05,60272,id,,Jalan Walikota Mustajab
Hotel Andita,,hotel,Surabaya,Indonesia,Dr. Sutomo,Jawa Timur,RW 08,60264,id,Dr. Sutomo,Jalan Cokroaminoto
oemah koss semampir,,hotel,Surabaya,Indonesia,Medokan Semampir,Jawa Timur,RW 01,60117,id,Medokan Semampir,Jalan Semampir Tengah VII
Hotel & Cottage Country Heritage Surabaya,,hotel,Surabaya,Indonesia,Ngiden Jangkungan,Jawa Timur,RW 06,60118,id,Ngiden Jangkungan,Jalan Nginden Baru VI
Everbright Hotel,,hotel,Surabaya,Indonesia,Manyar Sabrangan,Jawa Timur,RW 06,60116,id,Manyar Sabrangan,Jalan Manyar Kertoajo
HOTEL NEW COKLAT,,hotel,Surabaya,Indonesia,Ketabang,Jawa Timur,RW 04,60281,id,Ketabang,Jalan Anggrek
Weta,,hotel,Surabaya,Indonesia,Genteng,Jawa Timur,RW 06,60275,id,,Jalan Genteng Kali
Suite 303,,hotel,Surabaya,Indonesia,SiwalanKerto,Jawa Timur,RW 01,60235,id,Siwalankerto,Jalan Siwalankerto VIII
OMAH DENAYA HOTEL,,hotel,Surabaya,Indonesia,Pucang Sewu,Jawa Timur,RW 02,60283,id,Pucang Sewu,Jalan Ngagel Jaya Tengah IV
Pesonna Hotel,,hotel,Surabaya,Indonesia,Nyamplungan,Jawa Timur,RW 01,60161,id,,Jalan Benteng
TAB Hotel Surabaya,,hotel,Surabaya,Indonesia,Pradahkali Kendal,Jawa Timur,RW 08,60225,id,Pradahkali Kendal,Jalan Raya Darmo Permai Selatan
Sina,,hotel,,Indonesia,,Jawa Timur,,61253,id,Sedati Agung,Jalan Ir. H. Juanda
Kemajuan,,hotel,Surabaya,Indonesia,Nyamplungan,Jawa Timur,RW 06,60261,id,Nyamplungan,Jalan KH Mas Mansyur
My Studio Hotel Surabaya,,hotel,Surabaya,Indonesia,Gubeng,Jawa Timur,RW 07,60281,id,Gubeng,Jalan Kangean
Family Guest House Surabaya,,hotel,Surabaya,Indonesia,Kertajaya,Jawa Timur,RW 04,60286,id,,Jalan Kertajaya VIII C
Hotel Sahid,,hotel,Surabaya,Indonesia,Gubeng,Jawa Timur,RW 04,60281,id,Gubeng,Jalan Sumatera
Hotel Kemuning,,hotel,,Indonesia,,Jawa Timur,,60231,id,Sedati Gede,Jalan By Pass Juanda
HOTEL ASHOFA,,hotel,,Indonesia,,Jawa Timur,,61623,id,Sedati Gede,Jalan By Pass Juanda
ASCOTT Hotel,,hotel,Surabaya,Indonesia,Babatan,Jawa Timur,Kawasan Superblock Pakuwon,60123,id,Babatan,Jalan Puncak Indah Lontar Barat
Hotel Rich Palace,,hotel,Surabaya,Indonesia,Pradahkali Kendal,Jawa Timur,RW 01,60189,id,Pradahkali Kendal,Jalan Pradah Kali Kendal III
Ganefo,24/7,hotel,Surabaya,Indonesia,Kapasan,Jawa Timur,RW 03,60136,id,Kapasan,Jalan Kapasan
Novotel Surabaya Hotel & Suites,,hotel,Surabaya,Indonesia,Ngagel,Jawa Timur,RW 01,60246,id,Ngagel,Jalan Raya Ngagel
Hotel Narita,,hotel,Surabaya,Indonesia,Baratajaya,Jawa Timur,RW 06,60284,id,,Jalan Barata Jaya XVII
Sinar Hotel II,,hotel,,Indonesia,,Jawa Timur,,61253,id,Pabean,Jalan Letjend. Suprapto
Hotel 88 Embong Kenongo,,hotel,Surabaya,Indonesia,Embong Kaliasin,Jawa Timur,RW 01,60271,id,Embong Kaliasin,Jalan Embong Kenongo
Premier Inn,,hotel,,Indonesia,,Jawa Timur,,61253,id,Sedati Agung,Jalan Ir. H. Juanda
Tjahaja Baroe Homestay,,hotel,Surabaya,Indonesia,Putat Jaya,Jawa Timur,RW 13,61256,id,Putat Jaya,Jalan Dukuh Kupang
POP! Hotel Stasiun Kota - Surabaya,,hotel,Surabaya,Indonesia,Bongkaran,Jawa Timur,RW 04,60161,id,Bongkaran,Jalan Waspada
Hotel 88 Embong Malang,,hotel,Surabaya,Indonesia,Genteng,Jawa Timur,RW 03,60261,id,Genteng,Jalan Embong Malang
Cleo Hotel,,hotel,Surabaya,Indonesia,Embong Kaliasin,Jawa Timur,RW 02,60271,id,Embong Kaliasin,Jalan Simpang Pojok
Hotel Harris,,hotel,Surabaya,Indonesia,Gubeng,Jawa Timur,RW 04,60281,id,Gubeng,Jalan Bangka
Capsule Homestay,,hotel,Surabaya,Indonesia,Sawahan,Jawa Timur,RW 10,60252,id,Sawahan,Jalan Kedungdoro
Hotel Tantris,,hotel,Surabaya,Indonesia,Dr. Sutomo,Jawa Timur,RW 08,60264,id,Dr. Sutomo,Jalan Cokroaminoto
Hotel Midtown Surabaya,,hotel,Surabaya,Indonesia,Embong Kaliasin,Jawa Timur,RW 09,60262,id,Embong Kaliasin,Jalan Jenderal Basuki Rachmat
The Life Hotels,,hotel,Surabaya,Indonesia,Kapasari,Jawa Timur,RW 10,60136,id,Kapasari,Jalan Kusuma Bangsa
Rukotel,,hotel,Surabaya,Indonesia,Embong Kaliasin,Jawa Timur,RW 02,60271,id,Embong Kaliasin,Jalan Gubernur Suryo
Ten Club Coyote,,nightclub,Surabaya,Indonesia,Kedungdoro,Jawa Timur,RW 10,60261,id,Kedungdoro,Jalan Mergoyoso
Rasa Sayang Blue Fish,Mo-Su 18:00-02:00,nightclub,Surabaya,Indonesia,Kedungdoro,Jawa Timur,RW 01,60262,id,Kedungdoro,Jalan Tegalsari
360° club,,nightclub,Surabaya,Indonesia,Wonokromo,Jawa Timur,RW 04,60231,id,Wonokromo,Jalan Ahmad Yani
Happy Family Center,,nightclub,Surabaya,Indonesia,Embong Kaliasin,Jawa Timur,RW 03,60271,id,Embong Kaliasin,Jalan Embong Sawo
Buzz3rd,Mo-Su 16:00-02:00,pub,Surabaya,Indonesia,Lidah Kulon,Jawa Timur,RW 06,60185,id,Lidah Kulon,Jalan Telaga Golf
"Nen's Corner",,pub,Surabaya,Indonesia,Darmo,Jawa Timur,RW 08,60264,id,Darmo,Jalan Indragiri
Kuppel,Mo-Th 17:00-23:45; Fr-Su 17:00-01:00,pub,Surabaya,Indonesia,Jeruk,Jawa Timur,RW 04,60185,id,Jeruk,Jalan Telaga Utama
Colors Pub,,pub,Surabaya,Indonesia,Gubeng,Jawa Timur,RW 04,60281,id,Gubeng,Jalan Sumatera
Galaxy,,pub,Surabaya,Indonesia,Dukuh Kupang,Jawa Timur,RW 08,60225,id,Dukuh Kupang,Jalan Raya Dukuh Kupang Barat
Bebek Goreng Cak Yudi,,restaurant,Surabaya,Indonesia,Perak Barat,Jawa Timur,RW 08,60177,id,Perak Barat,Jalan Tanjung Priok
Ambrosia,Mo-Fr 16:00-22:00; Sa 12:00-23:00; Su 12:00-22:00,restaurant,Surabaya,Indonesia,Wiyung,Jawa Timur,RW 08,60223,id,Wiyung,Jalan Dian Istana D2
Rumah Makan Sriwedari,,restaurant,Surabaya,Indonesia,Kendangsari,Jawa Timur,RW 01,60292,id,Kendangsari,Jalan Raya Kendangsari
MAKAM FAMILI SAMBONGAN,,restaurant,Surabaya,Indonesia,Ngagel,Jawa Timur,RW 04,60246,id,,Jalan Ngagel
H. Ekram 2 Soto Lamongan,,restaurant,,Indonesia,,Jawa Timur,,61253,id,Ganting,Jalan Wonokoyo
Indagiri,,restaurant,Surabaya,Indonesia,Darmo,Jawa Timur,RW 01,60265,id,Darmo,Jalan Indragiri
Sate Ayam Madura Krembangan,,restaurant,Surabaya,Indonesia,Krembangan Selatan,Jawa Timur,RW 04,60175,id,Krembangan Selatan,Jalan Krembangan Barat
Holycow,Mo-Su 11:00-22:00,restaurant,Surabaya,Indonesia,Babatan,Jawa Timur,Kawasan Superblock Pakuwon,60185,id,Babatan,Jalan Bukit Darmo Boulevard
Restaurant Padang Sederhana - Pondok Candra Indah,,restaurant,,Indonesia,,Jawa Timur,,60232,id,Tambak Sumur,Jalan Taman Asri
Wei xiao,Mo-Th 10:00-22:00; Fr-Su 10:00-23:00,restaurant,Surabaya,Indonesia,Babatan,Jawa Timur,Kawasan Superblock Pakuwon,60185,id,Babatan,Jalan Bukit Darmo Boulevard
Sego gunung,Mo-Su 11:00-22:00,restaurant,Surabaya,Indonesia,Lidah Kulon,Jawa Timur,RW 13,60185,id,Lidah Kulon,Jalan Niagara Gapura
Mediterraneo Surabaya,,restaurant,Surabaya,Indonesia,Sono Kwijenan,Jawa Timur,RW 05,60225,id,Sono Kwijenan,Jalan Raya Kupang Baru
Hunger belt,,restaurant,Surabaya,Indonesia,Babatan,Jawa Timur,Kawasan Superblock Pakuwon,60185,id,Babatan,Jalan Bukit Darmo Boulevard
Bebek Goreng H. Slamet,,restaurant,Surabaya,Indonesia,Pucang Sewu,Jawa Timur,RW 02,60283,id,Pucang Sewu,Jalan Ngagel Jaya Utara
Hallo Surabaya,,restaurant,Surabaya,Indonesia,Lontar,Jawa Timur,RW 02,60185,id,,Jalan Raya Lontar
Wapo,,restaurant,Surabaya,Indonesia,Sambikerep,Jawa Timur,RW 13,60185,id,Sambikerep,Jalan Taman Gapura Barat
Bima Restaurant,,restaurant,Surabaya,Indonesia,Genteng,Jawa Timur,RW 06,60275,id,,Jalan Genteng Kali
Layar Perum Bukit Mas,,restaurant,Surabaya,Indonesia,Dukuh Pakis,Jawa Timur,RW 01,60224,id,Dukuh Pakis,Jalan Dukuh Pakis II Gang Sumberan
Papa Delle,,restaurant,Surabaya,Indonesia,Babatan,Jawa Timur,RW 11,60223,id,Babatan,Jalan Bintang Graha Famili IX
Pizza Hut,,restaurant,Surabaya,Indonesia,Kalisari,Jawa Timur,RW 05,60112,id,,Jalan Raya Mulyosari
Housaku,Mo-Su 10:00-22:00,restaurant,Surabaya,Indonesia,Lidah Kulon,Jawa Timur,RW 13,60185,id,Lidah Kulon,Jalan Niagara Gapura
Al hamra restaurant,,restaurant,Surabaya,Indonesia,Ketabang,Jawa Timur,RW 08,60272,id,Ketabang,Jalan Jaksa Agung Suprapto
Warjo,,restaurant,Surabaya,Indonesia,Made,Jawa Timur,RW 06,60185,id,Made,Jalan Citra Raya Niaga
Tune,Mo-Su 11:30-22:30,restaurant,Surabaya,Indonesia,Putat Gede,Jawa Timur,RW 01,60225,id,Putat Gede,Jalan HR. Muhammad
Mubaarok,,restaurant,Surabaya,Indonesia,Made,Jawa Timur,RW 06,60185,id,Made,Jalan Citra Raya Niaga
Restoran Bebek Tepi Sawah Surabaya,,restaurant,Surabaya,Indonesia,Darmo,Jawa Timur,RW 03,60241,id,,Jalan Darmo Kali I
Pawon,,restaurant,Surabaya,Indonesia,Babatan,Jawa Timur,Kawasan Superblock Pakuwon,60185,id,Babatan,Jalan Bukit Darmo Boulevard
Cwie mie Malang,Mo-Su 07:00-23:00,restaurant,Surabaya,Indonesia,Babatan,Jawa Timur,Kawasan Superblock Pakuwon,60185,id,Babatan,Jalan Bukit Darmo Boulevard
Bebek Pak Joss Cab. Dharmahusada,,restaurant,Surabaya,Indonesia,Mojo,Jawa Timur,RW 06,60285,id,Mojo,Jalan Profesor Doktor Moestopo
Kao,,restaurant,Surabaya,Indonesia,Pradahkali Kendal,Jawa Timur,RW 11,60185,id,Pradahkali Kendal,Jalan Kondominium Graha Famili
Edi Fried Chicken,,restaurant,Surabaya,Indonesia,Pacar Keling,Jawa Timur,RW 03,60131,id,Pacar Keling,Jalan Oro-Oro I
Wapo Restaurant,,restaurant,Surabaya,Indonesia,Airlangga,Jawa Timur,RW 07,60281,id,Airlangga,Jalan Airlangga
Gudeg Bu Toegijo,,restaurant,Surabaya,Indonesia,Kertajaya,Jawa Timur,RW 04,60281,id,,Jalan Gubeng Kertajaya VIIIA
Steak hut,,restaurant,Surabaya,Indonesia,Pradahkali Kendal,Jawa Timur,RW 08,60185,id,Pradahkali Kendal,Jalan Bukit Darmo Boulevard
"Hapsari (Tahu Bakso Semarang, Siomay)",,restaurant,Surabaya,Indonesia,Kedungdoro,Jawa Timur,RW 10,60261,id,Kedungdoro,Jalan Tunjungan
Pop Smile Chicken,,restaurant,Surabaya,Indonesia,SiwalanKerto,Jawa Timur,RW 01,60236,id,Siwalankerto,Jalan Siwalankerto
Bebek Goreng Harissa,,restaurant,Surabaya,Indonesia,Ketabang,Jawa Timur,RW 05,60272,id,,Jalan Walikota Mustajab
La rucola,,restaurant,Surabaya,Indonesia,Dr. Sutomo,Jawa Timur,RW 13,60265,id,Dr. Sutomo,Jalan Dokter Sutomo
RPP,"Mo-Th, Su 17:00-00:00; Fr, Sa 17:00-02:00",restaurant,Surabaya,Indonesia,Lidah Kulon,Jawa Timur,RW 06,60185,id,Lidah Kulon,Jalan Telaga Golf
Sadang Korean BBQ,Mo-Su 11:00-22:00,restaurant,Surabaya,Indonesia,Tegalsari,Jawa Timur,RW 02,60262,id,Tegalsari,Jalan Pregolan
Mahameru Restaurant,,restaurant,Surabaya,Indonesia,Dr. Sutomo,Jawa Timur,RW 11,60264,id,Dr. Sutomo,Jalan WR. Supratman
Loco,,restaurant,Surabaya,Indonesia,Pacar Keling,Jawa Timur,RW 07,60281,id,Pacar Keling,Jalan Gubeng
Korbeq,,restaurant,Surabaya,Indonesia,Babatan,Jawa Timur,Kawasan Superblock Pakuwon,60185,id,Babatan,Jalan Bukit Darmo Boulevard
"D'licious",Mo-Su 10:00-23:00,restaurant,Surabaya,Indonesia,Lidah Kulon,Jawa Timur,RW 13,60185,id,Lidah Kulon,Jalan Gapura Timur
The golden saffron,Mo-Su 10:00-22:00,restaurant,Surabaya,Indonesia,Lidah Kulon,Jawa Timur,RW 06,60185,id,Lidah Kulon,Jalan Telaga Golf
Depot Nasi Campur Pojok Tambak Bayan,,restaurant,Surabaya,Indonesia,Alon-Alon Contong,Jawa Timur,RW 02,60174,id,,Jalan Pasar Besar Wetan
Bandar Djakarta,Mo-Su 11:00-23:00,restaurant,Surabaya,Indonesia,Putat Gede,Jawa Timur,RW 01,60226,id,Putat Gede,Jalan HR. Muhammad
Lentora,Mo-Su 10:00-22:00,restaurant,Surabaya,Indonesia,Tegalsari,Jawa Timur,RW 02,60262,id,Tegalsari,Jalan Pregolan
Bebek Goreng H. Slamet,,restaurant,Surabaya,Indonesia,Tenggilis Mejoyo,Jawa Timur,RW 01,60293,id,,Jalan Tenggilis Mejoyo
Restonine,,restaurant,Surabaya,Indonesia,Dukuh Pakis,Jawa Timur,RW 02,60256,id,Dukuh Pakis,Jalan Mayjend Sungkono
Warkop Sedati,,restaurant,,Indonesia,,Jawa Timur,,61253,id,Betro,Jalan Ir. H. Juanda
Warung Sejedewe,,restaurant,Surabaya,Indonesia,Tenggilis Mejoyo,Jawa Timur,RW 05,60292,id,Tenggilis Mejoyo,Jalan Raya Tenggilis Mejoyo
"D'Jang Gem",Mo-Su 11:00-22:00,restaurant,Surabaya,Indonesia,Dukuh Kupang,Jawa Timur,RW 08,60225,id,Dukuh Kupang,Jalan Raya Dukuh Kupang Barat
Bangi Kopitiam,,restaurant,Surabaya,Indonesia,Genteng,Jawa Timur,RW 02,60261,id,,Jalan Simpang Dukuh
Hachi hachi,,restaurant,Surabaya,Indonesia,Lidah Kulon,Jawa Timur,RW 13,60185,id,Lidah Kulon,Jalan Niagara Gapura
Little kitchen,Mo-Su 10:00-00:00,restaurant,Surabaya,Indonesia,Putat Gede,Jawa Timur,RW 01,60225,id,Putat Gede,Jalan HR. Muhammad
Moi Garden,,restaurant,Surabaya,Indonesia,Mojo,Jawa Timur,RW 11,60116,id,Mojo,Jalan Manyar Kertoarjo V
Bebek Juara,,restaurant,,Indonesia,,Jawa Timur,,61254,id,Waru,Jalan Jenderal S Parman 5
Mama Noi,Mo-Su 11:00-21:00,restaurant,Surabaya,Indonesia,Lidah Kulon,Jawa Timur,RW 06,60185,id,Lidah Kulon,Jalan Sekolah Ciputra
Le galleria,Mo-Su 10:00-22:00,restaurant,Surabaya,Indonesia,Lidah Kulon,Jawa Timur,RW 06,60185,id,Lidah Kulon,Jalan bukit telaga golf
Pompit,Mo-Sa 11:00-23:00,restaurant,Surabaya,Indonesia,Lidah Kulon,Jawa Timur,RW 13,60185,id,Lidah Kulon,Jalan Gapura Timur
Seafood tower,,restaurant,Surabaya,Indonesia,Babatan,Jawa Timur,Kawasan Superblock Pakuwon,60185,id,Babatan,Jalan Bukit Darmo Boulevard
Bebek Goreng Hj. Slamet,,restaurant,Surabaya,Indonesia,Gubeng,Jawa Timur,RW 04,60281,id,Gubeng,Jalan Bali
Sego Njamoer,,restaurant,Surabaya,Indonesia,Gebang Putih,Jawa Timur,RW 01,60117,id,Gebang Putih,Gebang Kidul
Alam laut,,restaurant,Surabaya,Indonesia,Lidah Kulon,Jawa Timur,RW 13,60185,id,Lidah Kulon,Jalan Niagara Gapura
Pecel Kebon Rojo,,restaurant,Surabaya,Indonesia,Krembangan Selatan,Jawa Timur,RW 01,60175,id,,
Depot Madiun Bu Rudy,,restaurant,Surabaya,Indonesia,Kupang Krajan,Jawa Timur,RW 06,60254,id,Kupang Krajan,Jalan Banyu Urip
Ayam Goreng President,,restaurant,Surabaya,Indonesia,Sawahan,Jawa Timur,RW 07,60251,id,Sawahan,Jalan Tidar
Out of the blue!,"Mo-Th, Su 10:00-22:00; Fr, Sa 10:00-00:00",restaurant,Surabaya,Indonesia,Babatan,Jawa Timur,Kawasan Superblock Pakuwon,60185,id,Babatan,Jalan Bukit Darmo Boulevard
Penta,,restaurant,Surabaya,Indonesia,Darmo,Jawa Timur,RW 06,60265,id,Darmo,Jalan Indragiri
Hari hari,,restaurant,Surabaya,Indonesia,Darmo,Jawa Timur,RW 01,60265,id,Darmo,Jalan Musi
Pecel Nganjuk,,restaurant,,Indonesia,,Jawa Timur,,61254,id,Waru,Jalan Jenderal S Parman 5
Shijima,,restaurant,Surabaya,Indonesia,Babatan,Jawa Timur,Kawasan Superblock Pakuwon,60185,id,Babatan,Jalan Bukit Darmo Boulevard
Bu Rudy,,restaurant,Surabaya,Indonesia,Sawahan,Jawa Timur,RW 07,60251,id,Sawahan,Jalan Ansjasmoro
Fusia Restaurant,,restaurant,Surabaya,Indonesia,Darmo,Jawa Timur,RW 08,60264,id,Darmo,Jalan Dokter Sutomo
depot BAMARA,,restaurant,Surabaya,Indonesia,Dupak,Jawa Timur,RW 03,60175,id,Dupak,Jalan Raya Demak
Peco peco,,restaurant,Surabaya,Indonesia,Babatan,Jawa Timur,RW 02,60223,id,Babatan,Jalan Royal Residence
"D'cost",,restaurant,Surabaya,Indonesia,Embong Kaliasin,Jawa Timur,RW 05,60271,id,Embong Kaliasin,Jalan Kayon
Bebek Kayu Tangan,,restaurant,Surabaya,Indonesia,Ngagelrejo,Jawa Timur,RW 04,60245,id,Ngagelrejo,Jalan Bratang Gede
Amin Resto,Mo-Su 11:00-22:00,restaurant,Surabaya,Indonesia,Kedungdoro,Jawa Timur,RW 01,60262,id,Kedungdoro,Jalan Tegalsari
Soto Ambengan Pak Sadi Asli,,restaurant,Surabaya,Indonesia,Ketabang,Jawa Timur,RW 09,60272,id,Ketabang,Jalan Ambengan
A Cafe,,restaurant,Surabaya,Indonesia,Embong Kaliasin,Jawa Timur,RW 02,60261,id,Embong Kaliasin,Jalan Jenderal Basuki Rachmat
3M Makassar,,restaurant,Surabaya,Indonesia,Semolowaru,Jawa Timur,RW 01,60119,id,Semolowaru,Jalan Dr. Ir. H. Soekarno
Dream of kahyangan,Mo-Su 11:00-22:00,restaurant,Surabaya,Indonesia,Lidah Kulon,Jawa Timur,RW 06,60185,id,Lidah Kulon,Jalan Niagara Gapura
Ikan Bakar Cianjur,Mo-Su 09:00-21:00,restaurant,Surabaya,Indonesia,Dukuh Pakis,Jawa Timur,RW 04,60256,id,Dukuh Pakis,Jalan Mayjend Sungkono
PONDOK ALEXIS,,restaurant,Surabaya,Indonesia,SiwalanKerto,Jawa Timur,RW 06,60117,id,Siwalankerto,Gang K. Seger
Depot Soto Madura Gubeng Pojok Asli,,restaurant,Surabaya,Indonesia,Ketabang,Jawa Timur,RW 03,60272,id,Ketabang,Jalan Kusuma Bangsa
Boulevard,,restaurant,Surabaya,Indonesia,Pradahkali Kendal,Jawa Timur,RW 08,60185,id,Pradahkali Kendal,Jalan Bukit Darmo Boulevard
Depot Grace,,restaurant,Surabaya,Indonesia,Ploso,Jawa Timur,RW 07,60133,id,Ploso,Jalan Karang Empat Besar
Pizza Time,Mo-Su 10:30-23:00,restaurant,Surabaya,Indonesia,Kedungdoro,Jawa Timur,RW 01,60262,id,,Jalan Tegalsari
Carpentier Kitchen,,restaurant,Surabaya,Indonesia,Dr. Sutomo,Jawa Timur,RW 14,60265,id,Dr. Sutomo,Jalan Untung Suropati
Kepiting Cak Gundul 1992,,restaurant,Surabaya,Indonesia,Dukuh Kupang,Jawa Timur,RW 04,67156,id,Dukuh Kupang,Jalan Raya Kupang Indah
Libreria Eatery,,restaurant,Surabaya,Indonesia,Pucang Sewu,Jawa Timur,RW 01,60246,id,Pucang Sewu,Jalan Ngagel Jaya
Meat shop,Mo-Su 09:00-22:00,restaurant,Surabaya,Indonesia,Pradahkali Kendal,Jawa Timur,RW 06,60225,id,Pradahkali Kendal,Jalan Darmo Permai Selatan
Depot Bali,,restaurant,Surabaya,Indonesia,Peneleh,Jawa Timur,RW 05,60274,id,Peneleh,Jalan Makam Peneleh
De Mandailing,,restaurant,Surabaya,Indonesia,Klampis Ngasem,Jawa Timur,RW 02,60117,id,Klampis Ngasem,Jalan Klampis Jaya
Muttonbird Bistro & Rooftop,,restaurant,Surabaya,Indonesia,Kedung Baruk,Jawa Timur,RW 05,60117,id,Kedung Baruk,Jalan Dr. Ir. H. Soekarno
Bakso Pak Sabar,,restaurant,Surabaya,Indonesia,Gubeng,Jawa Timur,RW 02,60281,id,Gubeng,Jalan Gubeng Jaya
,,restaurant,Surabaya,Indonesia,Jemur Wonosari,Jawa Timur,RW 08,60237,id,Jemur Wonosari,Jalan Jemursari
Aiola Eatery,,restaurant,Surabaya,Indonesia,Ketabang,Jawa Timur,RW 04,60272,id,Ketabang,Jalan Slamet
RM.Singgalang Jaya,,restaurant,,Indonesia,,Jawa Timur,,61253,id,Banjar Kemuning,Jl. Tambak Cemandi
Rawon Calculator,,restaurant,Surabaya,Indonesia,Darmo,Jawa Timur,RW 03,60241,id,,Jalan Serayu
Warung Joglo,,restaurant,Surabaya,Indonesia,Wonokromo,Jawa Timur,RW 01,60231,id,Wonokromo,Jalan Ketintang
Rujak Cingur Genteng Durasim,,restaurant,Surabaya,Indonesia,Genteng,Jawa Timur,RW 10,60275,id,Genteng,Jalan Genteng Durasim
Hot-star,,restaurant,Surabaya,Indonesia,Pradahkali Kendal,Jawa Timur,RW 02,60185,id,Pradahkali Kendal,Jalan Graha Famili Barat 1
Rawon Setan,,restaurant,Surabaya,Indonesia,Genteng,Jawa Timur,RW 03,60275,id,Genteng,Jalan Embong Malang
Shanghai bowl,Mo-Su 11:00-22:00,restaurant,Surabaya,Indonesia,Babatan,Jawa Timur,Kawasan Superblock Pakuwon,60185,id,Babatan,Jalan Bukit Darmo Boulevard
Soto Madura Wawan,,restaurant,Surabaya,Indonesia,Pakis,Jawa Timur,RW 01,60256,id,Pakis,Jalan Mayjend Sungkono
Beautika Restoran Khas Manado,Mo-Su 09:00-21:00,restaurant,Surabaya,Indonesia,Kedungdoro,Jawa Timur,RW 01,60261,id,Kedungdoro,Jalan Tegalsari
Kaldu segara,Mo-Su 10:00-21:00,restaurant,Surabaya,Indonesia,Babatan,Jawa Timur,Kawasan Superblock Pakuwon,60185,id,Babatan,Jalan Bukit Darmo Boulevard
Hong Kong garden,Mo-Su 11:00-22:00,restaurant,Surabaya,Indonesia,Babatan,Jawa Timur,Kawasan Superblock Pakuwon,60185,id,Babatan,Jalan Bukit Darmo Boulevard
Anda fit,,restaurant,Surabaya,Indonesia,Ketabang,Jawa Timur,RW 06,60275,id,,Jalan Yos Sudarso
Pirates café,Tu-Su 10:00-19:00,restaurant,Surabaya,Indonesia,Made,Jawa Timur,RW 03,60185,id,Made,Jalan Citraraya Utama
Beatus,Tu-Su 18:00-23:00,restaurant,Surabaya,Indonesia,Pradahkali Kendal,Jawa Timur,RW 11,60185,id,Pradahkali Kendal,Jalan Kondominium Graha Famili
Yôkosa,"Tu-Su 11:00-15:00, 17:00-22:00",restaurant,Surabaya,Indonesia,Lidah Kulon,Jawa Timur,RW 06,60185,id,Lidah Kulon,Jalan Niagara Gapura
Magal,Mo-Su 11:30-22:00,restaurant,Surabaya,Indonesia,Lidah Wetan,Jawa Timur,Kawasan Superblock Pakuwon,60185,id,Lidah Wetan,Jalan Lingkar Dalam Barat
Jiraiya Ramen,17:00-22:00,restaurant,Surabaya,Indonesia,Airlangga,Jawa Timur,RW 08,60281,id,Airlangga,Jalan Karang Menjangan
Lamongan Indah,16:00-23:00,restaurant,Surabaya,Indonesia,Airlangga,Jawa Timur,RW 08,60281,id,Airlangga,Jalan Karang Menjangan
Myoung Ga,Mo-Su 11:00-22:00,restaurant,Surabaya,Indonesia,Putat Gede,Jawa Timur,RW 01,60225,id,Putat Gede,Jalan HR. Muhammad
RM  PADIN  Aneka Penyetan (Bu. Dewi Achmad),,restaurant,Surabaya,Indonesia,Bubutan,Jawa Timur,RW 08,60174,id,,Jalan Kranggan
Bangi Kopitiam,,restaurant,Surabaya,Indonesia,Ketabang,Jawa Timur,RW 05,60272,id,,Jalan Walikota Mustajab
Depot Tiara,Tu-Su 10:00-21:00,restaurant,,Indonesia,,Jawa Timur,,60271,id,,Taman Tiara Regency
United steak,,restaurant,Surabaya,Indonesia,Babatan,Jawa Timur,Kawasan Superblock Pakuwon,60185,id,Babatan,Jalan Bukit Darmo Boulevard
Happy garden,,restaurant,Surabaya,Indonesia,Lidah Kulon,Jawa Timur,RW 13,60185,id,Lidah Kulon,Jalan Niagara Gapura
Bakmi Plengkung Gading,,restaurant,Surabaya,Indonesia,Sawahan,Jawa Timur,RW 06,60252,id,Sawahan,Jalan Raya Arjuna
Tutto Bono,Mo-Su 11:00-23:00,restaurant,Surabaya,Indonesia,Babatan,Jawa Timur,Kawasan Superblock Pakuwon,60185,id,Babatan,Jalan Bukit Darmo Boulevard
Bubur Ayam Citra,,restaurant,,Indonesia,,Jawa Timur,,61254,id,Waru,Jalan Jenderal S Parman 5
Myoung Dong,Mo-Su 11:00-22:00,restaurant,Surabaya,Indonesia,Lontar,Jawa Timur,RW 13,60185,id,,Jalan Niagara Gapura
Tekka,,restaurant,Surabaya,Indonesia,Putat Gede,Jawa Timur,RW 01,60225,id,Putat Gede,Jalan HR. Muhammad
Pondok Tempo Doeloe,,restaurant,Surabaya,Indonesia,Dukuh Pakis,Jawa Timur,RW 04,60256,id,Dukuh Pakis,Jalan Mayjend Sungkono
Depot Mak Ay,,restaurant,Surabaya,Indonesia,Sono Kwijenan,Jawa Timur,RW 06,60189,id,Sono Kwijenan,Jalan Kupang Jaya
CALORIA RESTO,,restaurant,Surabaya,Indonesia,Mojo,Jawa Timur,RW 04,60115,id,,Jalan Raya Dharma Husada Indah
Bakso Kotak Cak Rie,,restaurant,Surabaya,Indonesia,Jemur Wonosari,Jawa Timur,RW 05,60237,id,,Jalan Wonocolo Pabrik Kulit
AIE DOHO,,restaurant,Surabaya,Indonesia,Keputran,Jawa Timur,RW 06,60265,id,Keputran,Jalam Dhoho
Kayu,Mo-Su 11:30-22:00,restaurant,Surabaya,Indonesia,Dukuh Pakis,Jawa Timur,RW 04,60189,id,Dukuh Pakis,Jalan Mayjend Sungkono
Seafood Kapasan (Simo Lawang Baru Pojok),,restaurant,Surabaya,Indonesia,Kapasan,Jawa Timur,RW 05,60141,id,Kapasan,Jalan Kapasan
Warung Penyetan Bu Kris,Mo-Su 10:00-22:00,restaurant,Surabaya,Indonesia,Dukuh Pakis,Jawa Timur,RW 01,60225,id,Dukuh Pakis,Jalan KH Abdul Wahab Siamin
Bakso Kepala Sapi,,restaurant,Surabaya,Indonesia,Bubutan,Jawa Timur,RW 08,60252,id,,Jalan Kranggan
Bakso Solo,,restaurant,Surabaya,Indonesia,Gubeng,Jawa Timur,RW 02,60286,id,Gubeng,Jalan Gubeng Jaya I
Soto Daging Marmoyo,,restaurant,Surabaya,Indonesia,Darmo,Jawa Timur,RW 04,60241,id,,Jalan Marmoyo
Yoyogi,Mo-Su 11:00-22:00,restaurant,Surabaya,Indonesia,Lidah Kulon,Jawa Timur,RW 13,60185,id,Lidah Kulon,Jalan Niagara Gapura
Sederhana,Mo-Su 08:00-23:00,restaurant,Surabaya,Indonesia,Lontar,Jawa Timur,RW 13,60185,id,,Jalan Niagara Gapura
Oba,"Mo-Fr 12:00-21:00; Sa, Su 11:00-22:00",restaurant,Surabaya,Indonesia,Pradahkali Kendal,Jawa Timur,RW 02,60185,id,Pradahkali Kendal,Jalan Graha Famili Barat 1
Sushi tei,Mo-Su 10:00-22:00,restaurant,Surabaya,Indonesia,Pradahkali Kendal,Jawa Timur,Kawasan Superblock Pakuwon,60185,id,Pradahkali Kendal,Jalan Puncak Indah Lontar Barat
Daun Lada,,restaurant,Surabaya,Indonesia,Dukuh Kupang,Jawa Timur,RW 04,60225,id,Dukuh Kupang,Jalan Raya Kupang Indah
Primarasa Restaurant,,restaurant,Surabaya,Indonesia,Manyar Sabrangan,Jawa Timur,RW 06,60231,id,Manyar Sabrangan,Jalan Manyar Kertoajo
alfamart,,restaurant,Surabaya,Indonesia,Krembangan Selatan,Jawa Timur,RW 09,60174,id,,Jalan Bubutan
Rujak Cingur Ahmad Jais,,restaurant,Surabaya,Indonesia,Peneleh,Jawa Timur,RW 02,60274,id,Peneleh,Jalan Achmad Jais
Six and Eat,,restaurant,Surabaya,Indonesia,Pacar Keling,Jawa Timur,RW 11,60131,id,Pacar Keling,Jalan Prmabanan
"Yong's","Mo, We-Su 08:00-21:00",restaurant,Surabaya,Indonesia,Pradahkali Kendal,Jawa Timur,RW 02,60185,id,Pradahkali Kendal,Jalan Graha Famili Barat 1
Hok Siong,,restaurant,Surabaya,Indonesia,Sawahan,Jawa Timur,RW 07,60251,id,Sawahan,Jalan Tidar
Warung Lesehan PANDAN SARI,,restaurant,Surabaya,Indonesia,Kandangan,Jawa Timur,RW 08,60195,id,Kandangan,Jalan Raya Kandangan
Makan Rumahan,,restaurant,Surabaya,Indonesia,Menur Pumpungan,Jawa Timur,RW 08,60116,id,Menur Pumpungan,Jalan Manyar Jaya V
Nur Pacific,,restaurant,Surabaya,Indonesia,Gubeng,Jawa Timur,RW 04,60281,id,Gubeng,Jalan Gubeng
Magal,,restaurant,Surabaya,Indonesia,Dukuh Pakis,Jawa Timur,RW 04,60256,id,Dukuh Pakis,Jalan Mayjend Sungkono
Take five,,restaurant,Surabaya,Indonesia,Dr. Sutomo,Jawa Timur,RW 10,60265,id,Dr. Sutomo,Jalan Ronggolawe
Dewa ~ndaru,,restaurant,Surabaya,Indonesia,Dukuh Pakis,Jawa Timur,RW 04,60256,id,Dukuh Pakis,Jalan Mayjend Sungkono
Hakka,,restaurant,Surabaya,Indonesia,Pradahkali Kendal,Jawa Timur,RW 02,60185,id,Pradahkali Kendal,Jalan Graha Famili Barat 1
Rosebay,,restaurant,Surabaya,Indonesia,Babatan,Jawa Timur,RW 11,60223,id,Babatan,Jalan Bintang Graha Famili I
Depot Sari Sop Buntut,,restaurant,Surabaya,Indonesia,Bongkaran,Jawa Timur,RW 01,60175,id,Bongkaran,Jalan Kalimalang
Curry house,"Mo-Th, Su 10:00-21:00; Fr, Sa 10:00-22:00",restaurant,Surabaya,Indonesia,Pradahkali Kendal,Jawa Timur,RW 08,60185,id,Pradahkali Kendal,Jalan Simpang Darmo Permai Selatan I
KACANG IJO PUCANG ANOM  PASAR PUCANG,,restaurant,Surabaya,Indonesia,Pucang Sewu,Jawa Timur,RW 08,60283,id,Pucang Sewu,Jalan Pucang Anom V
Brassery,Mo-Su 08:00-01:00,restaurant,Surabaya,Indonesia,Gubeng,Jawa Timur,RW 04,60281,id,Gubeng,Jalan Gubeng
Jenggala,,restaurant,Surabaya,Indonesia,Putat Gede,Jawa Timur,RW 01,60225,id,Putat Gede,Jalan HR. Muhammad
Lontong balap,,restaurant,Surabaya,Indonesia,Krembangan Utara,Jawa Timur,RW 10,60261,id,,Jalan Kebalen Timur
Gao Ji Shao Kao,,restaurant,Surabaya,Indonesia,Babatan,Jawa Timur,Kawasan Superblock Pakuwon,60185,id,Babatan,Jalan Bukit Darmo Boulevard
The Piggy,Mo-Su 16:00-22:30,restaurant,Surabaya,Indonesia,Lidah Kulon,Jawa Timur,RW 13,60185,id,Lidah Kulon,Jalan Niagara Gapura
Grand Ocean,,restaurant,Surabaya,Indonesia,Pradahkali Kendal,Jawa Timur,RW 01,60241,id,Pradahkali Kendal,Jalan Pradah Kali Kendal I Gang I
Burg & Burp,,restaurant,Surabaya,Indonesia,Babatan,Jawa Timur,Kawasan Superblock Pakuwon,60185,id,Babatan,Jalan Bukit Darmo Boulevard
Capital,Mo-Su 10:00-02:00,restaurant,Surabaya,Indonesia,Babatan,Jawa Timur,Kawasan Superblock Pakuwon,60185,id,Babatan,Jalan Bukit Darmo Boulevard
Corea,Tu-Su 11:00-22:00,restaurant,Surabaya,Indonesia,Lidah Kulon,Jawa Timur,RW 06,60185,id,Lidah Kulon,Jalan Puri Widya Kencana
"Sam's kitchen",,restaurant,Surabaya,Indonesia,Babatan,Jawa Timur,Kawasan Superblock Pakuwon,60185,id,Babatan,Jalan Bukit Darmo Boulevard
Soto Podjok,Mo-Su 07:00-21:00,restaurant,Surabaya,Indonesia,Lidah Kulon,Jawa Timur,RW 06,60185,id,Lidah Kulon,Jalan bukit telaga golf
Palimanan,Tu-Su 05:00-22:00,restaurant,Surabaya,Indonesia,Lakarsantri,Jawa Timur,RW 04,60185,id,Lakarsantri,Jalan Citraraya Utama
Depot AT 29,,restaurant,Surabaya,Indonesia,Tenggilis Mejoyo,Jawa Timur,RW 01,60293,id,Tenggilis Mejoyo,Jalan Tenggilis Mejoyo
"D' Cost",Mo-Su 11:00-21:00,restaurant,Surabaya,Indonesia,Pradahkali Kendal,Jawa Timur,RW 11,60185,id,Pradahkali Kendal,Jalan Kondominium Graha Famili
Kuningan Resturant,,restaurant,Surabaya,Indonesia,Gubeng,Jawa Timur,RW 04,60281,id,Gubeng,Jalan Biliton
Sego Sambel Mak Yeye,,restaurant,Surabaya,Indonesia,Jagir,Jawa Timur,RW 06,60244,id,Jagir,Jalan Jagir Wonokromo Wetan
Tahu Telor Pak Jayen,,restaurant,Surabaya,Indonesia,Mojo,Jawa Timur,RW 04,60115,id,,Jalan Raya Dharma Husada Indah
Kapok Lombok,Mo-Su 10:00-23:00,restaurant,Surabaya,Indonesia,Lontar,Jawa Timur,RW 13,60185,id,,Jalan Niagara Gapura
Soto Daging Tapaksiring,,restaurant,Surabaya,Indonesia,Mojo,Jawa Timur,RW 03,60281,id,Mojo,Jalan Kedung Pengkol III
Goodies pizza,Mo-Su 11:30-22:00,restaurant,Surabaya,Indonesia,Lontar,Jawa Timur,RW 13,60185,id,,Jalan Niagara Gapura
Mie Hokkien Rajake,,restaurant,Surabaya,Indonesia,Airlangga,Jawa Timur,RW 01,60281,id,Airlangga,Jalan Gubeng Masjid III
Sate Kambing & Gulai Keputih,,restaurant,Surabaya,Indonesia,Keputih,Jawa Timur,RW 03,60111,id,Keputih,Keputih Gang IB
Chinese food,,restaurant,Surabaya,Indonesia,Babatan,Jawa Timur,Kawasan Superblock Pakuwon,60185,id,Babatan,Jalan Bukit Darmo Boulevard
Ming Yang,Mo-Su 11:30-22:00,restaurant,Surabaya,Indonesia,Babatan,Jawa Timur,Kawasan Superblock Pakuwon,60185,id,Babatan,Jalan Bukit Darmo Boulevard
Gojumong,Mo-Su 11:30-22:30,restaurant,Surabaya,Indonesia,Pradahkali Kendal,Jawa Timur,RW 08,60185,id,Pradahkali Kendal,Jalan Bukit Darmo Boulevard
IBC Pondok Tempo Doeloe,,restaurant,,Indonesia,,Jawa Timur,,61254,id,Sedati Agung,Jalan Ir. H. Juanda
Ayam Tulang Lunak Malioboro,,restaurant,Surabaya,Indonesia,Dr. Sutomo,Jawa Timur,RW 08,60261,id,Dr. Sutomo,Jalan Teuku Umar
Bebek sinjay,,restaurant,Surabaya,Indonesia,Sawahan,Jawa Timur,RW 10,60275,id,Sawahan,Jalan Tidar
Finjan,,restaurant,Surabaya,Indonesia,Nyamplungan,Jawa Timur,RW 06,60261,id,Nyamplungan,Jalan KH Mas Mansyur
Soto wawan,,restaurant,Surabaya,Indonesia,Dr. Sutomo,Jawa Timur,RW 14,60265,id,,Jalan Diponegoro
Gyu-Kaku,,restaurant,Surabaya,Indonesia,Pradahkali Kendal,Jawa Timur,Kawasan Superblock Pakuwon,60185,id,Pradahkali Kendal,Jalan Puncak Indah Lontar Barat
Thaï street,,restaurant,Surabaya,Indonesia,Lontar,Jawa Timur,RW 01,60185,id,Lontar,Jalan Raya Lontar PLN
Supreso,,restaurant,Surabaya,Indonesia,Babatan,Jawa Timur,Kawasan Superblock Pakuwon,60185,id,Babatan,Jalan Bukit Darmo Boulevard
Cailano,,restaurant,Surabaya,Indonesia,Klampis Ngasem,Jawa Timur,RW 02,60115,id,Klampis Ngasem,Jalan Klampis Jaya
Nyah tewel,Mo-Su 11:00-22:00,restaurant,Surabaya,Indonesia,Sambikerep,Jawa Timur,RW 13,60185,id,Sambikerep,Jalan Taman Gapura Barat
Ayam Bakar Wong Solo,,restaurant,Surabaya,Indonesia,Ketabang,Jawa Timur,RW 05,60272,id,,Jalan Walikota Mustajab
SAS Cafe & Resto,,restaurant,Surabaya,Indonesia,Kalisari,Jawa Timur,RW 03,60112,id,,Jalan Bhaskara Sawah
Bakmi GM,,restaurant,Surabaya,Indonesia,Babatan,Jawa Timur,Kawasan Superblock Pakuwon,60185,id,Babatan,Jalan Bukit Darmo Boulevard
Soto Madura Tapak Siring,,restaurant,Surabaya,Indonesia,Mojo,Jawa Timur,RW 03,60285,id,Mojo,Jalan Profesor Doktor Moestopo
Society Complex,,restaurant,Surabaya,Indonesia,Gubeng,Jawa Timur,RW 04,60281,id,Gubeng,Jalan Sumatera
Gangnam,Mo-Su 11:00-22:00,restaurant,Surabaya,Indonesia,Babatan,Jawa Timur,Kawasan Superblock Pakuwon,60185,id,Babatan,Jalan Bukit Darmo Boulevard
Host,,restaurant,Surabaya,Indonesia,Lidah Wetan,Jawa Timur,RW 05,60223,id,Lidah Wetan,Jalan Lidah Harapan XVIII
Ming garden,,restaurant,Surabaya,Indonesia,Putat Gede,Jawa Timur,RW 01,60225,id,Putat Gede,Jalan HR. Muhammad
Es Teller Tanjung Anom,,restaurant,Surabaya,Indonesia,Genteng,Jawa Timur,RW 01,60275,id,Genteng,Jalan Tanjung Anom
Moi village,,restaurant,Surabaya,Indonesia,Babatan,Jawa Timur,RW 09,60185,id,Babatan,Jalan Puncak Lontar I
Larris,,restaurant,Surabaya,Indonesia,Pradahkali Kendal,Jawa Timur,RW 08,60185,id,Pradahkali Kendal,Jalan Raya Darmo Permai Selatan
Sambel Bu Rudy,,restaurant,Surabaya,Indonesia,Mojo,Jawa Timur,RW 06,60285,id,Mojo,Jalan Profesor Doktor Moestopo
Hanamasa,,restaurant,Surabaya,Indonesia,Pacar Keling,Jawa Timur,RW 07,60272,id,Pacar Keling,Jalan Gubeng Pojok
Sate Klopo Ondomohen,,restaurant,Surabaya,Indonesia,Ketabang,Jawa Timur,RW 05,60272,id,,Jalan Walikota Mustajab
Pak Rudy,,restaurant,Surabaya,Indonesia,Dukuh Pakis,Jawa Timur,RW 04,60256,id,Dukuh Pakis,Jalan Mayjend Sungkono
Bebek Tugu Pahlawan,,restaurant,Surabaya,Indonesia,Alon-Alon Contong,Jawa Timur,RW 08,60174,id,,Jalan Tembaan
Bakso solo,,restaurant,Surabaya,Indonesia,Babatan,Jawa Timur,Kawasan Superblock Pakuwon,60185,id,Babatan,Jalan Bukit Darmo Boulevard
Chuan wei,Mo-Su 16:00-00:00,restaurant,Surabaya,Indonesia,Babatan,Jawa Timur,Kawasan Superblock Pakuwon,60185,id,Babatan,Jalan Bukit Darmo Boulevard
Brother Union Eatery,,restaurant,Surabaya,Indonesia,Keputran,Jawa Timur,RW 06,60261,id,Keputran,Jalan M. Jasin (Polisi Istimewa)
Mie Ayam H&W,,restaurant,Surabaya,Indonesia,Lidah Kulon,Jawa Timur,RW 13,60185,id,Lidah Kulon,Jalan Niagara Gapura
Boncafe Steak & Ice Cream,Mo-Su 09:00-22:00,restaurant,Surabaya,Indonesia,Tegalsari,Jawa Timur,RW 02,60262,id,Tegalsari,Jalan Pregolan
Kartikasari Pujasera,,restaurant,Surabaya,Indonesia,Mojo,Jawa Timur,RW 11,60116,id,Mojo,Jalan Manyar Kertoarjo V
Soto Ayam Lamongan Cak Har,,restaurant,Surabaya,Indonesia,Semolowaru,Jawa Timur,RW 09,60119,id,Semolowaru,Jalan Klampis Semolo Timur III
Loempia 23,,restaurant,Surabaya,Indonesia,Lontar,Jawa Timur,RW 10,60185,id,Lontar,Jalan Simpang Darmo Permai Selatan
Mie Setan,,restaurant,Surabaya,Indonesia,Ngagel,Jawa Timur,RW 03,60281,id,,Jalan Nias
Beatus,Tu-Su 18:00-23:00,restaurant,Surabaya,Indonesia,Lakarsantri,Jawa Timur,RW 04,60185,id,Lakarsantri,Jalan Bukit Golf Utama
Ayam Goreng Asli Pemuda,,restaurant,Surabaya,Indonesia,Sawahan,Jawa Timur,RW 07,60251,id,Sawahan,Jalan Tidar
Banana Bil-Bil Food,,restaurant,Surabaya,Indonesia,Sambikerep,Jawa Timur,RW 03,60217,id,Sambikerep,Jalan Raya Bungkal
Taste code,"Mo-Fr, Su 16:00-23:55; Sa 16:00-01:00",restaurant,Surabaya,Indonesia,Lidah Kulon,Jawa Timur,RW 13,60185,id,Lidah Kulon,Jalan Niagara Gapura
Kober Mie Setan,,restaurant,Surabaya,Indonesia,Ketabang,Jawa Timur,RW 03,60272,id,Ketabang,Jalan Kaca Piring
Holycow! Steakhouse by Chef Afit,Mo-Su 11:00-22:00,restaurant,Surabaya,Indonesia,Tegalsari,Jawa Timur,RW 02,60262,id,Tegalsari,Jalan Pregolan
Platinum grill,Tu-Su 18:00-23:00,restaurant,Surabaya,Indonesia,Pradahkali Kendal,Jawa Timur,RW 02,60225,id,Pradahkali Kendal,Jalan Raya Golf Graha Famili
Domicile Kitchen & Lounge,,restaurant,Surabaya,Indonesia,Gubeng,Jawa Timur,RW 04,60281,id,Gubeng,Jalan Sumatera
Ayam Bakar Primarasa,,restaurant,Surabaya,Indonesia,Gayungan,Jawa Timur,RW 02,60235,id,,Jalan A Yani Frontage Barat
Donburi Be Happy,,restaurant,Surabaya,Indonesia,Banjar Sugihan,Jawa Timur,RW 04,60186,id,Banjar Sugihan,Jalan Marrgomulyo Indah
Special Nasi Udang Khas Bu Rudi,,restaurant,Surabaya,Indonesia,Dukuh Kupang,Jawa Timur,RW 04,60225,id,Dukuh Kupang,Jalan Raya Kupang Indah
Depot Mangga,,restaurant,Surabaya,Indonesia,Panjang Jiwo,Jawa Timur,RW 08,60299,id,Panjang Jiwo,Jalan Prapen Indah Timur VI
May Star,Mo-Sa 10:00-22:00; Su 08:00-22:00,restaurant,Surabaya,Indonesia,Lidah Wetan,Jawa Timur,Kawasan Superblock Pakuwon,60185,id,Lidah Wetan,Jalan Lingkar Dalam Barat
Nasi Bebek Kanwa,,restaurant,Surabaya,Indonesia,Darmo,Jawa Timur,RW 09,60241,id,Darmo,Jalan Kanwa
T4,,restaurant,Surabaya,Indonesia,Pradahkali Kendal,Jawa Timur,RW 02,60185,id,Pradahkali Kendal,Jalan Graha Famili Barat 1
Sahara,,restaurant,Surabaya,Indonesia,Babatan,Jawa Timur,Kawasan Superblock Pakuwon,60185,id,Babatan,Jalan Bukit Darmo Boulevard
Hao,,restaurant,Surabaya,Indonesia,Pradahkali Kendal,Jawa Timur,RW 02,60185,id,Pradahkali Kendal,Jalan Graha Famili Barat 1
Warung ayam betutu,,restaurant,Surabaya,Indonesia,Babatan,Jawa Timur,Kawasan Superblock Pakuwon,60185,id,Babatan,Jalan Bukit Darmo Boulevard
Frangipani,Mo-Su 11:00-23:00,restaurant,Surabaya,Indonesia,Babatan,Jawa Timur,Kawasan Superblock Pakuwon,60185,id,Babatan,Jalan Bukit Darmo Boulevard
"What's cook n'",,restaurant,Surabaya,Indonesia,Lidah Kulon,Jawa Timur,RW 06,60185,id,Lidah Kulon,Jalan Niagara Gapura
Sentra Kuliner Taman Flora,,restaurant,Surabaya,Indonesia,Baratajaya,Jawa Timur,RW 08,60284,id,Baratajaya,Jalan Ngagel Jaya Selatan
DS Bistro,Mo-Su 10:00-23:00,restaurant,Surabaya,Indonesia,Lontar,Jawa Timur,RW 13,60185,id,,Jalan Niagara Gapura
Bamegah,,restaurant,Surabaya,Indonesia,Pakis,Jawa Timur,RW 01,60256,id,Pakis,Jalan Mayjend Sungkono